ONEWEB-0665             
1 55825U 23029AF  25276.18473717  .00000204  00000+0  51598-3 0  9997
2 55825  87.9072 340.9199 0001616 104.5553 255.5756 13.14503976125644
ONEWEB-0666             
1 55826U 23029AG  25276.06659611  .00000089  00000+0  18804-3 0  9998
2 55826  87.9245 325.7620 0002679  93.7395 266.4044 13.20773699127214
ONEWEB-0667             
1 55827U 23029AH  25276.59058260  .00000011  00000+0 -54169-5 0  9992
2 55827  87.9246 325.5861 0001738  98.1802 261.9528 13.20772884127276
ONEWEB-0669             
1 55828U 23029AJ  25276.58586319  .00000040  00000+0  66798-4 0  9994
2 55828  87.9243 325.6269 0002140  77.6992 282.4381 13.20771328127274
ONEWEB-0670             
1 55829U 23029AK  25276.23864180  .00000247  00000+0  63297-3 0  9991
2 55829  87.9069 340.9289 0001531  92.8601 267.2704 13.14501789125679
ONEWEB-0671             
1 55830U 23029AL  25276.49946428  .00000137  00000+0  30865-3 0  9990
2 55830  87.9271 356.0392 0001709 100.1700 259.9626 13.19726182125042
ONEWEB-0672             
1 55831U 23029AM  25276.20233730  .00000027  00000+0  33888-4 0  9992
2 55831  87.9237 325.6848 0002183  93.3501 266.7882 13.20771365127229
ONEWEB-0673             
1 55832U 23029AN  25276.62740594  .00000025  00000+0  30346-4 0  9994
2 55832  87.9290 355.9830 0001849 106.8173 253.3163 13.19727162125067
